FLOCK 4H-33             
1 66736U 25276BY  26068.75632564  .00008618  00000+0  40674-3 0  9996
2 66736  97.4288 144.1705 0000956 288.4074  71.7057 15.19689011 15333
SPEQTRE                 
1 66769U 25276DH  26068.75606160  .00007042  00000+0  33483-3 0  9995
2 66769  97.4277 144.1551 0001387 149.2003 210.9313 15.19499769 15332
